H1 CPF  2 ESA 2024 11 20 10 325 01 galileo214
H2  1606904 7214    41862 2024 11 19 23 59 42 2024 11 24 23 59 42   900 1 1  0 0 0  1
H9
10 0 60635  21582.000000  0     -12893686.199      21628691.315      15556077.320
10 0 60635  22482.000000  0     -13931744.871      22425096.587      13382067.976
10 0 60635  23382.000000  0     -14755539.561      23161092.685      11041576.702
10 0 60635  24282.000000  0     -15368528.762      23802747.045       8563721.751
10 0 60635  25182.000000  0     -15780243.785      24317751.460       5979330.188
10 0 60635  26082.000000  0     -16005929.442      24676460.250       3320553.901
10 0 60635  26982.000000  0     -16066006.893      24852847.695        620469.026
10 0 60635  27882.000000  0     -15985375.645      24825354.602      -2087336.164
10 0 60635  28782.000000  0     -15792576.711      24577597.404      -4769179.706
10 0 60635  29682.000000  0     -15518843.323      24098917.484      -7391705.476
10 0 60635  30582.000000  0     -15197069.102      23384753.441      -9922298.486
10 0 60635  31482.000000  0     -14860726.180      22436824.606     -12329490.744
10 0 60635  32382.000000  0     -14542767.313      21263120.015     -14583352.585
10 0 60635  33282.000000  0     -14274546.514      19877693.185     -16655864.577
10 0 60635  34182.000000  0     -14084792.122      18300269.109     -18521265.402
10 0 60635  35082.000000  0     -13998664.533      16555675.758     -20156371.406
10 0 60635  35982.000000  0     -14036928.172      14673117.888     -21540863.899
10 0 60635  36882.000000  0     -14215263.643      12685315.810     -22657540.726
10 0 60635  37782.000000  0     -14543741.620      10627536.046     -23492529.050
10 0 60635  38682.000000  0     -15026474.928       8536544.074     -24035456.812
10 0 60635  39582.000000  0     -15661459.735       6449511.822     -24279580.804
10 0 60635  40482.000000  0     -16440610.823       4402913.921     -24221869.870
10 0 60635  41382.000000  0     -17349989.858       2431447.089     -23863042.226
10 0 60635  42282.000000  0     -18370219.592        567006.243     -23207556.491
10 0 60635  43182.000000  0     -19477071.072      -1162250.797     -22263556.527
10 0 60635  44082.000000  0     -20642205.580      -2732720.947     -21042770.767
10 0 60635  44982.000000  0     -21834048.184      -4126030.407     -19560367.212
10 0 60635  45882.000000  0     -23018765.641      -5329545.160     -17834765.837
10 0 60635  46782.000000  0     -24161318.135      -6336701.556     -15887410.659
10 0 60635  47682.000000  0     -25226552.003      -7147146.721     -13742504.186
10 0 60635  48582.000000  0     -26180299.262      -7766684.466     -11426707.482
10 0 60635  49482.000000  0     -26990449.540      -8207028.451      -8968809.476
10 0 60635  50382.000000  0     -27627960.809      -8485370.380      -6399369.578
10 0 60635  51282.000000  0     -28067777.211      -8623776.812      -3750338.003
10 0 60635  52182.000000  0     -28289625.168      -8648433.559      -1054658.509
10 0 60635  53082.000000  0     -28278662.716      -8588761.416       1654141.495
10 0 60635  53982.000000  0     -28025961.640      -8476431.059       4342368.335
10 0 60635  54882.000000  0     -27528807.200      -8344308.094       6976581.717
10 0 60635  55782.000000  0     -26790805.948      -8225361.481       9524011.323
10 0 60635  56682.000000  0     -25821798.202      -8151569.682      11952965.121
10 0 60635  57582.000000  0     -24637577.847      -8152858.991      14233224.237
10 0 60635  58482.000000  0     -23259428.204      -8256107.477      16336419.414
10 0 60635  59382.000000  0     -21713488.472      -8484245.897      18236384.336
10 0 60635  60282.000000  0     -20029970.570      -8855483.904      19909481.398
10 0 60635  61182.000000  0     -18242250.891      -9382685.902      21334895.862
10 0 60635  62082.000000  0     -16385865.378     -10072916.223      22494894.770
10 0 60635  62982.000000  0     -14497439.355     -10927167.964      23375047.408
10 0 60635  63882.000000  0     -12613585.561     -11940284.057      23964404.630
10 0 60635  64782.000000  0     -10769804.817     -13101073.144      24255634.870
10 0 60635  65682.000000  0      -8999423.638     -14392616.684      24245115.161
10 0 60635  66582.000000  0      -7332601.962     -15792757.787      23932976.105
10 0 60635  67482.000000  0      -5795441.910     -17274756.538      23323100.222
10 0 60635  68382.000000  0      -4409225.386     -18808091.392      22423073.717
10 0 60635  69282.000000  0      -3189804.239     -20359381.627      21244092.259
10 0 60635  70182.000000  0      -2147161.972     -21893402.074      19800821.898
10 0 60635  71082.000000  0      -1285160.609     -23374158.400      18111216.831
10 0 60635  71982.000000  0       -601480.533     -24765989.355      16196296.221
10 0 60635  72882.000000  0        -87755.080     -26034661.483      14079882.815
10 0 60635  73782.000000  0        270104.441     -27148422.047      11788306.568
10 0 60635  74682.000000  0        491403.587     -28078977.183       9350076.929
10 0 60635  75582.000000  0        599995.434     -28802364.630       6795527.871
10 0 60635  76482.000000  0        623468.148     -29299693.674       4156440.080
10 0 60635  77382.000000  0        592215.084     -29557729.099       1465645.040
10 0 60635  78282.000000  0        538416.715     -29569300.835      -1243384.011
10 0 60635  79182.000000  0        494966.463     -29333526.451      -3936949.113
10 0 60635  80082.000000  0        494374.279     -28855839.540      -6581547.335
10 0 60635  80982.000000  0        567682.495     -28147823.123      -9144287.956
10 0 60635  81882.000000  0        743428.080     -27226853.347     -11593301.836
10 0 60635  82782.000000  0       1046683.981     -26115564.675     -13898137.828
10 0 60635  83682.000000  0       1498209.670     -24841153.398     -16030141.275
10 0 60635  84582.000000  0       2113737.653     -23434541.322     -17962809.887
10 0 60635  85482.000000  0       2903418.325     -21929425.866     -19672122.596
10 0 60635  86382.000000  0       3871440.653     -20361246.339     -21136837.349
10 0 60636    882.000000  0       5015840.596     -18766098.734     -22338754.194
10 0 60636   1782.000000  0       6328503.318     -17179632.988     -23262940.498
10 0 60636   2682.000000  0       7795359.174     -15635967.120     -23897915.561
10 0 60636   3582.000000  0       9396767.426     -14166652.164     -24235792.438
10 0 60636   4482.000000  0      11108075.746     -12799720.128     -24272375.285
10 0 60636   5382.000000  0      12900338.129     -11558844.659     -24007211.074
10 0 60636   6282.000000  0      14741168.892     -10462640.523     -23443595.084
10 0 60636   7182.000000  0      16595706.171      -9524123.697     -22588530.101
10 0 60636   8082.000000  0      18427654.953      -8750348.835     -21452639.832
10 0 60636   8982.000000  0      20200377.161      -8142235.370     -20050037.551
10 0 60636   9882.000000  0      21877994.830      -7694587.600     -18398151.557
10 0 60636  10782.000000  0      23426471.994      -7396308.084     -16517509.527
10 0 60636  11682.000000  0      24814641.525      -7230797.609     -14431484.350
10 0 60636  12582.000000  0      26015144.868      -7176529.173     -12166004.520
10 0 60636  13482.000000  0      27005255.285      -7207777.981      -9749232.603
10 0 60636  14382.000000  0      27767558.867      -7295484.518      -7211215.700
10 0 60636  15282.000000  0      28290471.957      -7408223.624      -4583512.225
10 0 60636  16182.000000  0      28568578.774      -7513249.104      -1898799.600
10 0 60636  17082.000000  0      28602778.628      -7577581.047        809532.239
10 0 60636  17982.000000  0      28400238.072      -7569101.631       3507796.444
10 0 60636  18882.000000  0      27974149.490      -7457624.932       6162428.748
10 0 60636  19782.000000  0      27343303.679      -7215907.038       8740405.564
10 0 60636  20682.000000  0      26531489.817      -6820564.637      11209655.422
10 0 60636  21582.000000  0      25566741.679      -6252873.115      13539458.567
10 0 60636  22482.000000  0      24480453.737      -5499419.000      15700829.658
10 0 60636  23382.000000  0      23306394.917      -4552586.145      17666878.796
10 0 60636  24282.000000  0      22079650.953      -3410860.273      19413146.331
10 0 60636  25182.000000  0      20835528.524      -2078942.236      20917907.291
10 0 60636  26082.000000  0      19608455.536       -567666.309      22162441.649
10 0 60636  26982.000000  0      18430912.013       1106274.027      23131267.098
10 0 60636  27882.000000  0      17332425.073       2920784.323      23812331.471
10 0 60636  28782.000000  0      16338659.448       4848997.191      24197162.469
10 0 60636  29682.000000  0      15470631.984       6860050.582      24280972.866
10 0 60636  30582.000000  0      14744074.662       8919992.053      24062719.932
10 0 60636  31482.000000  0      14168966.044      10992780.871      23545118.345
10 0 60636  32382.000000  0      13749245.726      13041356.694      22734606.467
10 0 60636  33282.000000  0      13482720.701      15028741.535      21641266.367
10 0 60636  34182.000000  0      13361166.501      16919140.627      20278698.582
10 0 60636  35082.000000  0      13370619.877      18679007.857      18663853.139
10 0 60636  35982.000000  0      13491853.809      20278042.503      16816818.884
10 0 60636  36882.000000  0      13701019.908      21690086.178      14760573.702
10 0 60636  37782.000000  0      13970437.986      22893891.949      12520698.698
10 0 60636  38682.000000  0      14269508.012      23873741.615      10125059.858
10 0 60636  39582.000000  0      14565715.756      24619891.872       7603461.135
10 0 60636  40482.000000  0      14825700.494      25128835.424       4987273.290
10 0 60636  41382.000000  0      15016351.201      25403368.943       2309043.117
10 0 60636  42282.000000  0      15105896.724      25452465.790       -397912.029
99